[{"OBJECT_NAME":"TIANMU-1 11","OBJECT_ID":"2023-205A","EPOCH":"2026-03-10T00:04:04.804896","MEAN_MOTION":15.25886825,"ECCENTRICITY":0.00089558,"INCLINATION":97.3549,"RA_OF_ASC_NODE":92.1484,"ARG_OF_PERICENTER":7.2987,"MEAN_ANOMALY":352.838,"EPHEMERIS_TYPE":0,"CLASSIFICATION_TYPE":"U","NORAD_CAT_ID":58645,"ELEMENT_SET_NO":999,"REV_AT_EPOCH":12239,"BSTAR":0.00031315232,"MEAN_MOTION_DOT":7.963e-5,"MEAN_MOTION_DDOT":0},{"OBJECT_NAME":"STARLINK-35650","OBJECT_ID":"2025-268S","EPOCH":"2026-03-09T03:30:00.926784","MEAN_MOTION":15.27552243,"ECCENTRICITY":0.00014842,"INCLINATION":43.0029,"RA_OF_ASC_NODE":350.3909,"ARG_OF_PERICENTER":294.8754,"MEAN_ANOMALY":65.1944,"EPHEMERIS_TYPE":0,"CLASSIFICATION_TYPE":"U","NORAD_CAT_ID":66573,"ELEMENT_SET_NO":999,"REV_AT_EPOCH":1787,"BSTAR":0.00078546773,"MEAN_MOTION_DOT":0.00021397,"MEAN_MOTION_DDOT":0}]
